start=new Date('2023-06-14T00:00:00.000Z').valueOf();
sats=[{"ARG_OF_PERICENTER":"87.6478","PERIAPSIS":"539.034","CLASSIFICATION_TYPE":"U","DECAY_DATE":null,"ELEMENT_SET_NO":"999","TLE_LINE2":"2 53616  53.2172  32.1892 0001031  87.6478 272.4632 15.08839288 44953","SITE":"AFETR","ECCENTRICITY":"0.00010310","OBJECT_TYPE":"PAYLOAD","REV_AT_EPOCH":"4495","RCS_SIZE":"LARGE","INCLINATION":"53.2172","MEAN_ELEMENT_THEORY":"SGP4","GP_ID":"233873156","MEAN_MOTION_DOT":"0.00000933","RA_OF_ASC_NODE":"32.1892","CENTER_NAME":"EARTH","TLE_LINE1":"1 53616U 22104AE  23164.93538144  .00000933  00000-0  76718-4 0  9991","OBJECT_NAME":"STARLINK-4605","MEAN_ANOMALY":"272.4632","COUNTRY_CODE":"US","NORAD_CAT_ID":"53616","BSTAR":"0.00007671800000","EPOCH":"2023-06-13T22:26:56.956416","LAUNCH_DATE":"2022-08-28","MEAN_MOTION_DDOT":"0.0000000000000","TIME_SYSTEM":"UTC","APOAPSIS":"540.461","OBJECT_ID":"2022-104AE","MEAN_MOTION":"15.08839288","SEMIMAJOR_AXIS":"6917.883","EPHEMERIS_TYPE":"0","FILE":"3932371","REF_FRAME":"TEME","PERIOD":"95.438"},{"EPHEMERIS_TYPE":"0","PERIOD":"95.437","REF_FRAME":"TEME","FILE":"3932371","MEAN_MOTION":"15.08841311","OBJECT_ID":"2022-104AF","SEMIMAJOR_AXIS":"6917.876","MEAN_MOTION_DDOT":"0.0000000000000","LAUNCH_DATE":"2022-08-28","TIME_SYSTEM":"UTC","APOAPSIS":"540.442","OBJECT_NAME":"STARLINK-4601","TLE_LINE1":"1 53617U 22104AF  23164.92247144  .00000801  00000-0  68393-4 0  9992","MEAN_ANOMALY":"269.7924","EPOCH":"2023-06-13T22:08:21.532416","BSTAR":"0.00006839300000","COUNTRY_CODE":"US","NORAD_CAT_ID":"53617","CENTER_NAME":"EARTH","RA_OF_ASC_NODE":"42.2850","REV_AT_EPOCH":"4470","RCS_SIZE":"LARGE","OBJECT_TYPE":"PAYLOAD","GP_ID":"233874409","MEAN_MOTION_DOT":"0.00000801","INCLINATION":"53.2176","MEAN_ELEMENT_THEORY":"SGP4","ELEMENT_SET_NO":"999","DECAY_DATE":null,"CLASSIFICATION_TYPE":"U","PERIAPSIS":"539.041","ARG_OF_PERICENTER":"90.3184","ECCENTRICITY":"0.00010130","TLE_LINE2":"2 53617  53.2176  42.2850 0001013  90.3184 269.7924 15.08841311 44705","SITE":"AFETR"},{"APOAPSIS":"540.531","TIME_SYSTEM":"UTC","MEAN_MOTION_DDOT":"0.0000000000000","LAUNCH_DATE":"2022-08-28","EPOCH":"2023-06-13T21:52:26.394240","BSTAR":"0.00009983900000","COUNTRY_CODE":"US","NORAD_CAT_ID":"53618","MEAN_ANOMALY":"261.4844","TLE_LINE1":"1 53618U 22104AG  23164.91141660  .00001302  00000-0  99839-4 0  9994","OBJECT_NAME":"STARLINK-4604","PERIOD":"95.437","REF_FRAME":"TEME","FILE":"3932371","EPHEMERIS_TYPE":"0","SEMIMAJOR_AXIS":"6917.874","MEAN_MOTION":"15.08842128","OBJECT_ID":"2022-104AG","GP_ID":"233874656","MEAN_MOTION_DOT":"0.00001302","INCLINATION":"53.2177","MEAN_ELEMENT_THEORY":"SGP4","REV_AT_EPOCH":"4412","RCS_SIZE":"LARGE","OBJECT_TYPE":"PAYLOAD","ECCENTRICITY":"0.00011450","SITE":"AFETR","TLE_LINE2":"2 53618  53.2177  42.2138 0001145  98.6277 261.4844 15.08842128 44129","ELEMENT_SET_NO":"999","DECAY_DATE":null,"ARG_OF_PERICENTER":"98.6277","PERIAPSIS":"538.947","CLASSIFICATION_TYPE":"U","CENTER_NAME":"EARTH","RA_OF_ASC_NODE":"42.2138"},{"OBJECT_TYPE":"PAYLOAD","REV_AT_EPOCH":"4470","RCS_SIZE":"LARGE","MEAN_ELEMENT_THEORY":"SGP4","INCLINATION":"53.2181","MEAN_MOTION_DOT":"0.00001827","GP_ID":"233873408","ARG_OF_PERICENTER":"89.6226","PERIAPSIS":"538.892","CLASSIFICATION_TYPE":"U","DECAY_DATE":null,"ELEMENT_SET_NO":"999","TLE_LINE2":"2 53619  53.2181  42.2648 0001196  89.6226 270.4903 15.08848605 44707","SITE":"AFETR","ECCENTRICITY":"0.00011960","CENTER_NAME":"EARTH","RA_OF_ASC_NODE":"42.2648","LAUNCH_DATE":"2022-08-28","MEAN_MOTION_DDOT":"0.0000000000000","TIME_SYSTEM":"UTC","APOAPSIS":"540.546","MEAN_ANOMALY":"270.4903","TLE_LINE1":"1 53619U 22104AH  23164.91878092  .00001827  00000-0  13281-3 0  9999","OBJECT_NAME":"STARLINK-4609","COUNTRY_CODE":"US","NORAD_CAT_ID":"53619","EPOCH":"2023-06-13T22:03:02.671488","BSTAR":"0.00013281000000","EPHEMERIS_TYPE":"0","FILE":"3932371","REF_FRAME":"TEME","PERIOD":"95.437","OBJECT_ID":"2022-104AH","MEAN_MOTION":"15.08848605","SEMIMAJOR_AXIS":"6917.854"},{"INCLINATION":"53.2175","MEAN_ELEMENT_THEORY":"SGP4","MEAN_MOTION_DOT":"0.00000686","GP_ID":"233873657","OBJECT_TYPE":"PAYLOAD","RCS_SIZE":"LARGE","REV_AT_EPOCH":"4479","TLE_LINE2":"2 53620  53.2175  42.7640 0001157  86.6516 273.4608 15.08841658 44790","SITE":"AFETR","ECCENTRICITY":"0.00011570","CLASSIFICATION_TYPE":"U","PERIAPSIS":"538.940","ARG_OF_PERICENTER":"86.6516","DECAY_DATE":null,"ELEMENT_SET_NO":"999","CENTER_NAME":"EARTH","RA_OF_ASC_NODE":"42.7640","TIME_SYSTEM":"UTC","APOAPSIS":"540.541","LAUNCH_DATE":"2022-08-28","MEAN_MOTION_DDOT":"0.0000000000000","NORAD_CAT_ID":"53620","COUNTRY_CODE":"US","BSTAR":"0.00006115500000","EPOCH":"2023-06-13T18:31:03.445824","MEAN_ANOMALY":"273.4608","TLE_LINE1":"1 53620U 22104AJ  23164.77156766  .00000686  00000-0  61155-4 0  9998","OBJECT_NAME":"STARLINK-4615","FILE":"3932371","PERIOD":"95.437","REF_FRAME":"TEME","EPHEMERIS_TYPE":"0","MEAN_MOTION":"15.08841658","OBJECT_ID":"2022-104AJ","SEMIMAJOR_AXIS":"6917.875"},{"RA_OF_ASC_NODE":"42.2370","CENTER_NAME":"EARTH","ECCENTRICITY":"0.00010010","SITE":"AFETR","TLE_LINE2":"2 53621  53.2180  42.2370 0001001  95.5791 264.5315 15.08842968 44706","DECAY_DATE":null,"ELEMENT_SET_NO":"999","PERIAPSIS":"539.044","ARG_OF_PERICENTER":"95.5791","CLASSIFICATION_TYPE":"U","GP_ID":"233873909","MEAN_MOTION_DOT":"0.00000827","MEAN_ELEMENT_THEORY":"SGP4","INCLINATION":"53.2180","REV_AT_EPOCH":"4470","RCS_SIZE":"LARGE","OBJECT_TYPE":"PAYLOAD","SEMIMAJOR_AXIS":"6917.871","OBJECT_ID":"2022-104AK","MEAN_MOTION":"15.08842968","REF_FRAME":"TEME","PERIOD":"95.437","FILE":"3932371","EPHEMERIS_TYPE":"0","BSTAR":"0.00007005200000","EPOCH":"2023-06-13T21:57:44.639136","COUNTRY_CODE":"US","NORAD_CAT_ID":"53621","TLE_LINE1":"1 53621U 22104AK  23164.91509999  .00000827  00000-0  70052-4 0  9998","OBJECT_NAME":"STARLINK-4608","MEAN_ANOMALY":"264.5315","APOAPSIS":"540.429","TIME_SYSTEM":"UTC","MEAN_MOTION_DDOT":"0.0000000000000","LAUNCH_DATE":"2022-08-28"},{"OBJECT_NAME":"STARLINK-4568","TLE_LINE1":"1 53622U 22104AL  23164.76516080  .00004373  00000-0  29288-3 0  9995","MEAN_ANOMALY":"270.7141","NORAD_CAT_ID":"53622","COUNTRY_CODE":"US","BSTAR":"0.00029288000000","EPOCH":"2023-06-13T18:21:49.893120","LAUNCH_DATE":"2022-08-28","MEAN_MOTION_DDOT":"0.0000000000000","APOAPSIS":"540.693","TIME_SYSTEM":"UTC","SEMIMAJOR_AXIS":"6917.967","OBJECT_ID":"2022-104AL","MEAN_MOTION":"15.08811625","EPHEMERIS_TYPE":"0","FILE":"3932371","PERIOD":"95.439","REF_FRAME":"TEME","ARG_OF_PERICENTER":"89.3993","PERIAPSIS":"538.971","CLASSIFICATION_TYPE":"U","ELEMENT_SET_NO":"999","DECAY_DATE":null,"SITE":"AFETR","TLE_LINE2":"2 53622  53.2172  42.7238 0001245  89.3993 270.7141 15.08811625 44792","ECCENTRICITY":"0.00012450","OBJECT_TYPE":"PAYLOAD","REV_AT_EPOCH":"4479","RCS_SIZE":"LARGE","MEAN_ELEMENT_THEORY":"SGP4","INCLINATION":"53.2172","GP_ID":"233874156","MEAN_MOTION_DOT":"0.00004373","RA_OF_ASC_NODE":"42.7238","CENTER_NAME":"EARTH"},{"LAUNCH_DATE":"2022-08-28","MEAN_MOTION_DDOT":"0.0000000000000","TIME_SYSTEM":"UTC","APOAPSIS":"540.561","TLE_LINE1":"1 53623U 22104AM  23164.77525602  .00000546  00000-0  52401-4 0  9999","OBJECT_NAME":"STARLINK-4573","MEAN_ANOMALY":"268.6658","NORAD_CAT_ID":"53623","COUNTRY_CODE":"US","EPOCH":"2023-06-13T18:36:22.120128","BSTAR":"0.00005240100000","EPHEMERIS_TYPE":"0","FILE":"3932371","REF_FRAME":"TEME","PERIOD":"95.438","MEAN_MOTION":"15.08832160","OBJECT_ID":"2022-104AM","SEMIMAJOR_AXIS":"6917.904","OBJECT_TYPE":"PAYLOAD","RCS_SIZE":"LARGE","REV_AT_EPOCH":"4479","MEAN_ELEMENT_THEORY":"SGP4","INCLINATION":"53.2175","MEAN_MOTION_DOT":"0.00000546","GP_ID":"233872908","PERIAPSIS":"538.977","CLASSIFICATION_TYPE":"U","ARG_OF_PERICENTER":"91.4465","DECAY_DATE":null,"ELEMENT_SET_NO":"999","TLE_LINE2":"2 53623  53.2175  42.7866 0001145  91.4465 268.6658 15.08832160 44796","SITE":"AFETR","ECCENTRICITY":"0.00011450","CENTER_NAME":"EARTH","RA_OF_ASC_NODE":"42.7866"},{"DECAY_DATE":null,"ELEMENT_SET_NO":"999","ARG_OF_PERICENTER":"87.4628","PERIAPSIS":"538.907","CLASSIFICATION_TYPE":"U","ECCENTRICITY":"0.00012060","SITE":"AFETR","TLE_LINE2":"2 53624  53.2181  45.3948 0001206  87.4628 272.6502 15.08841364 44708","RCS_SIZE":"LARGE","REV_AT_EPOCH":"4470","OBJECT_TYPE":"PAYLOAD","MEAN_MOTION_DOT":"-0.00000026","GP_ID":"233840448","MEAN_ELEMENT_THEORY":"SGP4","INCLINATION":"53.2181","RA_OF_ASC_NODE":"45.3948","CENTER_NAME":"EARTH","MEAN_ANOMALY":"272.6502","TLE_LINE1":"1 53624U 22104AN  23164.16803547 -.00000026  00000-0  16429-4 0  9994","OBJECT_NAME":"STARLINK-4596","BSTAR":"0.00001642900000","EPOCH":"2023-06-13T04:01:58.264608","NORAD_CAT_ID":"53624","COUNTRY_CODE":"US","MEAN_MOTION_DDOT":"0.0000000000000","LAUNCH_DATE":"2022-08-28","APOAPSIS":"540.576","TIME_SYSTEM":"UTC","SEMIMAJOR_AXIS":"6917.876","OBJECT_ID":"2022-104AN","MEAN_MOTION":"15.08841364","EPHEMERIS_TYPE":"0","PERIOD":"95.437","REF_FRAME":"TEME","FILE":"3932134"},{"MEAN_MOTION_DOT":"-0.00000800","GP_ID":"233874410","MEAN_ELEMENT_THEORY":"SGP4","INCLINATION":"53.2166","RCS_SIZE":"LARGE","REV_AT_EPOCH":"4479","OBJECT_TYPE":"PAYLOAD","ECCENTRICITY":"0.00010860","SITE":"AFETR","TLE_LINE2":"2 53625  53.2166  42.7412 0001086 101.8855 258.2259 15.08839976 44792","DECAY_DATE":null,"ELEMENT_SET_NO":"999","PERIAPSIS":"538.994","CLASSIFICATION_TYPE":"U","ARG_OF_PERICENTER":"101.8855","CENTER_NAME":"EARTH","RA_OF_ASC_NODE":"42.7412","APOAPSIS":"540.497","TIME_SYSTEM":"UTC","MEAN_MOTION_DDOT":"0.0000000000000","LAUNCH_DATE":"2022-08-28","BSTAR":"-0.00003217000000","EPOCH":"2023-06-13T18:25:45.308928","COUNTRY_CODE":"US","NORAD_CAT_ID":"53625","MEAN_ANOMALY":"258.2259","TLE_LINE1":"1 53625U 22104AP  23164.76788552 -.00000800  00000-0 -32170-4 0  9991","OBJECT_NAME":"STARLINK-4603","REF_FRAME":"TEME","PERIOD":"95.438","FILE":"3932371","EPHEMERIS_TYPE":"0","SEMIMAJOR_AXIS":"6917.880","MEAN_MOTION":"15.08839976","OBJECT_ID":"2022-104AP"}];
